NORAD_CAT_ID,OBJECT_NAME,OBJECT_TYPE,EPOCH,MEAN_MOTION,ECCENTRICITY,INCLINATION,RA_OF_ASC_NODE,ARG_OF_PERICENTER,MEAN_ANOMALY,BSTAR,MEAN_MOTION_DOT,MEAN_MOTION_DDOT,TLE_LINE0,TLE_LINE1,TLE_LINE2,SEMIMAJOR_AXIS,PERIOD,APOGEE,PERIGEE,DECAYED
52836.0,STARLINK-4043,PAYLOAD,2024-06-13 06:01:48,15.07205823,0.0001275,53.2171,2.3467,100.6271,259.4864,3.2646e-05,2.14e-06,0.0,0 STARLINK-4043,1 52836U 22062G   24165.25125397  .00000214  00000-0  32646-4 0  9990,2 52836  53.2171   2.3467 0001275 100.6271 259.4864 15.07205823110002,6922.88,95.541,545.628,543.862,0.0
52836.0,STARLINK-4043,PAYLOAD,2024-06-13 21:56:42,15.07205195,0.0001375,53.2179,359.3795,108.7698,251.3443,0.0004912,7.201e-05,0.0,0 STARLINK-4043,1 52836U 22062G   24165.91437761  .00007201  00000-0  49120-3 0  9991,2 52836  53.2179 359.3795 0001375 108.7698 251.3443 15.07205195110109,6922.882,95.541,545.699,543.795,0.0
52836.0,STARLINK-4043,PAYLOAD,2024-06-14 05:54:08,15.0720873,0.000138,53.2185,357.8898,88.6636,271.4514,0.00058132,8.577e-05,0.0,0 STARLINK-4043,1 52836U 22062G   24166.24593671  .00008577  00000-0  58132-3 0  9991,2 52836  53.2185 357.8898 0001380  88.6636 271.4514 15.07208730110152,6922.871,95.541,545.691,543.781,0.0
52836.0,STARLINK-4043,PAYLOAD,2024-06-14 20:13:33,15.0719816,0.0001379,53.2183,355.217,85.9113,274.2036,0.00011625,1.486e-05,0.0,0 STARLINK-4043,1 52836U 22062G   24166.84274922  .00001486  00000-0  11625-3 0  9990,2 52836  53.2183 355.2170 0001379  85.9113 274.2036 15.07198160110248,6922.903,95.542,545.723,543.814,0.0
52836.0,STARLINK-4043,PAYLOAD,2024-06-15 05:46:29,15.07214651,0.00014,53.219,353.4352,86.4419,273.6733,0.00029093,4.149e-05,0.0,0 STARLINK-4043,1 52836U 22062G   24167.24061407  .00004149  00000-0  29093-3 0  9994,2 52836  53.2190 353.4352 0001400  86.4419 273.6733 15.07214651110306,6922.853,95.54,545.687,543.749,0.0
52836.0,STARLINK-4043,PAYLOAD,2024-06-15 18:30:23,15.07209935,0.0001226,53.2176,351.0587,91.0868,269.0264,0.00011528,1.472e-05,0.0,0 STARLINK-4043,1 52836U 22062G   24167.77111013  .00001472  00000-0  11528-3 0  9991,2 52836  53.2176 351.0587 0001226  91.0868 269.0264 15.07209935110385,6922.867,95.541,545.581,543.884,0.0
52836.0,STARLINK-4043,PAYLOAD,2024-06-16 12:00:46,15.07202192,0.0001516,53.2179,347.7981,82.0585,278.0579,-2.7195e-06,-3.25e-06,0.0,0 STARLINK-4043,1 52836U 22062G   24168.50054342 -.00000325  00000-0 -27195-5 0  9991,2 52836  53.2179 347.7981 0001516  82.0585 278.0579 15.07202192110495,6922.891,95.541,545.806,543.707,0.0
52836.0,STARLINK-4043,PAYLOAD,2024-06-16 18:22:44,15.07201732,0.0001342,53.2185,346.6047,103.3001,256.8141,8.1932e-05,9.64e-06,0.0,0 STARLINK-4043,1 52836U 22062G   24168.76579194  .00000964  00000-0  81932-4 0  9991,2 52836  53.2185 346.6047 0001342 103.3001 256.8141 15.07201732110533,6922.892,95.541,545.687,543.828,0.0
52836.0,STARLINK-4043,PAYLOAD,2024-06-17 18:15:04,15.07202972,0.0001017,53.2163,342.1534,90.5471,269.5637,9.8456e-05,1.216e-05,0.0,0 STARLINK-4043,1 52836U 22062G   24169.76047130  .00001216  00000-0  98456-4 0  9992,2 52836  53.2163 342.1534 0001017  90.5471 269.5637 15.07202972110682,6922.889,95.541,545.458,544.05,0.0
52836.0,STARLINK-4043,PAYLOAD,2024-06-18 11:45:27,15.07202895,0.0001066,53.2163,338.8871,91.1262,268.9851,0.00024417,3.435e-05,0.0,0 STARLINK-4043,1 52836U 22062G   24170.48990403  .00003435  00000-0  24417-3 0  9993,2 52836  53.2163 338.8871 0001066  91.1262 268.9851 15.07202895110794,6922.889,95.541,545.492,544.016,0.0
52836.0,STARLINK-4043,PAYLOAD,2024-06-18 14:56:26,15.07204295,0.0001076,53.2165,338.2933,91.222,268.8894,0.00024635,3.468e-05,0.0,0 STARLINK-4043,1 52836U 22062G   24170.62252756  .00003468  00000-0  24635-3 0  9999,2 52836  53.2165 338.2933 0001076  91.2220 268.8894 15.07204295110810,6922.885,95.541,545.495,544.005,0.0
52836.0,STARLINK-4043,PAYLOAD,2024-06-18 18:07:25,15.07205787,0.0001088,53.2165,337.6991,91.8351,268.2765,0.00025268,3.565e-05,0.0,0 STARLINK-4043,1 52836U 22062G   24170.75515096  .00003565  00000-0  25268-3 0  9993,2 52836  53.2165 337.6991 0001088  91.8351 268.2765 15.07205787110831,6922.88,95.541,545.498,543.992,0.0
52836.0,STARLINK-4043,PAYLOAD,2024-06-19 03:40:20,15.07216912,0.0001179,53.2173,335.9176,94.0691,266.0435,0.00031746,4.554e-05,0.0,0 STARLINK-4043,1 52836U 22062G   24171.15301624  .00004554  00000-0  31746-3 0  9995,2 52836  53.2173 335.9176 0001179  94.0691 266.0435 15.07216912110897,6922.846,95.54,545.527,543.895,0.0
52836.0,STARLINK-4043,PAYLOAD,2024-06-19 11:37:47,15.07206245,0.0001909,53.2195,334.435,98.2541,261.8667,8.6474e-05,1.033e-05,0.0,0 STARLINK-4043,1 52836U 22062G   24171.48458151  .00001033  00000-0  86474-4 0  9997,2 52836  53.2195 334.4350 0001909  98.2541 261.8667 15.07206245110944,6922.879,95.541,546.065,543.422,0.0
52836.0,STARLINK-4043,PAYLOAD,2024-06-19 14:48:46,15.07196397,0.0001221,53.2176,333.8389,94.8377,265.2754,-1.5583e-05,-5.2e-06,0.0,0 STARLINK-4043,1 52836U 22062G   24171.61721009 -.00000520  00000-0 -15583-4 0  9992,2 52836  53.2176 333.8389 0001221  94.8377 265.2754 15.07196397110967,6922.909,95.542,545.619,543.929,0.0
52836.0,STARLINK-4043,PAYLOAD,2024-06-19 17:59:45,15.07199289,0.0001248,53.2179,333.246,98.5992,261.5141,2.6674e-05,1.23e-06,0.0,0 STARLINK-4043,1 52836U 22062G   24171.74983274  .00000123  00000-0  26674-4 0  9990,2 52836  53.2179 333.2460 0001248  98.5992 261.5141 15.07199289110981,6922.9,95.541,545.629,543.901,0.0
52836.0,STARLINK-4043,PAYLOAD,2024-06-20 14:41:07,15.07202439,0.0001529,53.2191,329.3871,102.5129,257.6034,3.0274e-05,1.77e-06,0.0,0 STARLINK-4043,1 52836U 22062G   24172.61188731  .00000177  00000-0  30274-4 0  9992,2 52836  53.2191 329.3871 0001529 102.5129 257.6034 15.07202439111112,6922.89,95.541,545.814,543.697,0.0
52836.0,STARLINK-4043,PAYLOAD,2024-06-20 19:27:35,15.07204062,0.0001414,53.2191,328.4956,96.1327,263.9825,5.7532e-05,5.92e-06,0.0,0 STARLINK-4043,1 52836U 22062G   24172.81082365  .00000592  00000-0  57532-4 0  9997,2 52836  53.2191 328.4956 0001414  96.1327 263.9825 15.07204062111142,6922.885,95.541,545.729,543.771,0.0
52836.0,STARLINK-4043,PAYLOAD,2024-06-21 14:33:27,15.07205404,0.0001335,53.219,324.9303,89.1933,270.9211,0.00024071,3.383e-05,0.0,0 STARLINK-4043,1 52836U 22062G   24173.60656755  .00003383  00000-0  24071-3 0  9997,2 52836  53.2190 324.9303 0001335  89.1933 270.9211 15.07205404111266,6922.881,95.541,545.67,543.822,0.0
52836.0,STARLINK-4043,PAYLOAD,2024-06-21 17:44:26,15.0720603,0.0001268,53.2185,324.336,86.8061,273.3075,0.00020518,2.841e-05,0.0,0 STARLINK-4043,1 52836U 22062G   24173.73919078  .00002841  00000-0  20518-3 0  9991,2 52836  53.2185 324.3360 0001268  86.8061 273.3075 15.07206030111281,6922.879,95.541,545.622,543.866,0.0
52836.0,STARLINK-4043,PAYLOAD,2024-06-22 09:39:19,15.07204821,0.0001265,53.2184,321.3666,85.8768,274.2368,0.00015901,2.138e-05,0.0,0 STARLINK-4043,1 52836U 22062G   24174.40231114  .00002138  00000-0  15901-3 0  9993,2 52836  53.2184 321.3666 0001265  85.8768 274.2368 15.07204821111388,6922.883,95.541,545.624,543.872,0.0
52836.0,STARLINK-4043,PAYLOAD,2024-06-22 14:25:47,15.07206144,0.0001261,53.2184,320.4759,86.0096,274.1039,0.00016599,2.244e-05,0.0,0 STARLINK-4043,1 52836U 22062G   24174.60124662  .00002244  00000-0  16599-3 0  9996,2 52836  53.2184 320.4759 0001261  86.0096 274.1039 15.07206144111412,6922.879,95.541,545.617,543.871,0.0
52836.0,STARLINK-4043,PAYLOAD,2024-06-22 16:01:16,15.07207705,0.0001188,53.2181,320.1787,88.0124,272.1003,0.00012002,1.544e-05,0.0,0 STARLINK-4043,1 52836U 22062G   24174.66755733  .00001544  00000-0  12002-3 0  9998,2 52836  53.2181 320.1787 0001188  88.0124 272.1003 15.07207705111423,6922.874,95.541,545.562,543.917,0.0
52836.0,STARLINK-4043,PAYLOAD,2024-06-23 12:42:38,15.07211362,0.0001163,53.2179,316.3185,93.2906,266.8218,0.00015946,2.145e-05,0.0,0 STARLINK-4043,1 52836U 22062G   24175.52960882  .00002145  00000-0  15946-3 0  9995,2 52836  53.2179 316.3185 0001163  93.2906 266.8218 15.07211362111554,6922.863,95.541,545.533,543.923,0.0
52836.0,STARLINK-4043,PAYLOAD,2024-06-23 14:18:07,15.07211318,0.0001145,53.2178,316.0215,95.3042,264.808,0.00015474,2.073e-05,0.0,0 STARLINK-4043,1 52836U 22062G   24175.59592045  .00002073  00000-0  15474-3 0  9990,2 52836  53.2178 316.0215 0001145  95.3042 264.8080 15.07211318111565,6922.863,95.541,545.521,543.935,0.0
52836.0,STARLINK-4043,PAYLOAD,2024-06-23 19:04:35,15.07213441,0.0001126,53.2177,315.1305,96.9796,263.1324,0.00017483,2.38e-05,0.0,0 STARLINK-4043,1 52836U 22062G   24175.79485435  .00002380  00000-0  17483-3 0  9999,2 52836  53.2177 315.1305 0001126  96.9796 263.1324 15.07213441111591,6922.857,95.541,545.501,543.942,0.0
52836.0,STARLINK-4043,PAYLOAD,2024-06-24 12:34:58,15.07204865,0.0001188,53.2179,311.8625,99.4518,260.6608,9.8493e-06,-1.33e-06,0.0,0 STARLINK-4043,1 52836U 22062G   24176.52428867 -.00000133  00000-0  98493-5 0  9994,2 52836  53.2179 311.8625 0001188  99.4518 260.6608 15.07204865111709,6922.883,95.541,545.57,543.925,0.0
52836.0,STARLINK-4043,PAYLOAD,2024-06-24 14:10:27,15.07205349,0.0001149,53.218,311.5657,92.4452,267.6671,2.755e-05,1.36e-06,0.0,0 STARLINK-4043,1 52836U 22062G   24176.59060179  .00000136  00000-0  27550-4 0  9996,2 52836  53.2180 311.5657 0001149  92.4452 267.6671 15.07205349111716,6922.881,95.541,545.542,543.951,0.0
52836.0,STARLINK-4043,PAYLOAD,2024-06-24 15:45:57,15.07205075,0.0001153,53.2181,311.2689,92.4774,267.6349,2.0228e-05,2.5e-07,0.0,0 STARLINK-4043,1 52836U 22062G   24176.65691374  .00000025  00000-0  20228-4 0  9992,2 52836  53.2181 311.2689 0001153  92.4774 267.6349 15.07205075111720,6922.882,95.541,545.545,543.949,0.0
52836.0,STARLINK-4043,PAYLOAD,2024-06-25 14:02:48,15.07204168,0.0001175,53.218,307.1098,84.4786,275.6339,3.3575e-05,2.28e-06,0.0,0 STARLINK-4043,1 52836U 22062G   24177.58528106  .00000228  00000-0  33575-4 0  9991,2 52836  53.2180 307.1098 0001175  84.4786 275.6339 15.07204168111860,6922.885,95.541,545.563,543.937,0.0
